{
  "type": "FeatureCollection",
  "features": [
    {
      "type": "Feature",
      "properties": {
        "norad_id": 36744,
        "name": "COMS 1",
        "group": "weather",
        "lat": -4.208052379811049,
        "lon": -28.082238508679435,
        "alt_km": 35784.76429229827,
        "timestamp": "2025-12-21T07:34:34.187445+00:00",
        "meta_object_name": "COMS 1",
        "meta_object_id": "2010-032A",
        "meta_epoch": "2025-12-20T17:15:48.580128",
        "meta_mean_motion": 1.00272163,
        "meta_eccentricity": 6.966e-05,
        "meta_inclination": 4.3584,
        "meta_ra_of_asc_node": 77.9096,
        "meta_arg_of_pericenter": 203.045,
        "meta_mean_anomaly": 195.7243,
        "meta_ephemeris_type": 0,
        "meta_classification_type": "U",
        "meta_norad_cat_id": 36744,
        "meta_element_set_no": 999,
        "meta_rev_at_epoch": 4930,
        "meta_bstar": 0,
        "meta_mean_motion_dot": -3.24e-06,
        "meta_mean_motion_ddot": 0,
        "tle_line1": "1 36744U 10032A   25354.71931227 -.00000324  00000+0  00000+0 0  9999",
        "tle_line2": "2 36744   4.3584  77.9096 0000696 203.0450 195.7243  1.00272163 49302"
      },
      "geometry": {
        "type": "Point",
        "coordinates": [
          -28.082238508679435,
          -4.208052379811049
        ]
      }
    },
    {
      "type": "Feature",
      "properties": {
        "norad_id": 37214,
        "name": "FENGYUN 3B",
        "group": "weather",
        "lat": 49.156191360511244,
        "lon": -134.0960284465512,
        "alt_km": 852.871304132047,
        "timestamp": "2025-12-21T07:34:34.187456+00:00",
        "meta_object_name": "FENGYUN 3B",
        "meta_object_id": "2010-059A",
        "meta_epoch": "2025-12-20T23:02:32.156160",
        "meta_mean_motion": 14.14791231,
        "meta_eccentricity": 0.00216699,
        "meta_inclination": 98.9899,
        "meta_ra_of_asc_node": 34.9948,
        "meta_arg_of_pericenter": 334.4054,
        "meta_mean_anomaly": 145.3922,
        "meta_ephemeris_type": 0,
        "meta_classification_type": "U",
        "meta_norad_cat_id": 37214,
        "meta_element_set_no": 999,
        "meta_rev_at_epoch": 78222,
        "meta_bstar": -8.4886952e-05,
        "meta_mean_motion_dot": -2.1e-06,
        "meta_mean_motion_ddot": 0,
        "tle_line1": "1 37214U 10059A   25354.96009440 -.00000210  00000+0 -84887-4 0  9996",
        "tle_line2": "2 37214  98.9899  34.9948 0021669 334.4054 145.3922 14.14791231782225"
      },
      "geometry": {
        "type": "Point",
        "coordinates": [
          -134.0960284465512,
          49.156191360511244
        ]
      }
    },
    {
      "type": "Feature",
      "properties": {
        "norad_id": 37849,
        "name": "SUOMI NPP",
        "group": "weather",
        "lat": 62.45933589562944,
        "lon": 129.8153104780366,
        "alt_km": 819.1991867300248,
        "timestamp": "2025-12-21T07:34:34.187465+00:00",
        "meta_object_name": "SUOMI NPP",
        "meta_object_id": "2011-061A",
        "meta_epoch": "2025-12-17T23:31:21.474624",
        "meta_mean_motion": 14.19515682,
        "meta_eccentricity": 0.00023932,
        "meta_inclination": 98.7779,
        "meta_ra_of_asc_node": 289.2746,
        "meta_arg_of_pericenter": 111.1248,
        "meta_mean_anomaly": 249.0184,
        "meta_ephemeris_type": 0,
        "meta_classification_type": "U",
        "meta_norad_cat_id": 37849,
        "meta_element_set_no": 999,
        "meta_rev_at_epoch": 73273,
        "meta_bstar": 4.8615036e-05,
        "meta_mean_motion_dot": 5.8e-07,
        "meta_mean_motion_ddot": 0,
        "tle_line1": "1 37849U 11061A   25351.98010966  .00000058  00000+0  48615-4 0  9995",
        "tle_line2": "2 37849  98.7779 289.2746 0002393 111.1248 249.0184 14.19515682732735"
      },
      "geometry": {
        "type": "Point",
        "coordinates": [
          129.8153104780366,
          62.45933589562944
        ]
      }
    },
    {
      "type": "Feature",
      "properties": {
        "norad_id": 38552,
        "name": "METEOSAT-10 (MSG-3)",
        "group": "weather",
        "lat": 2.5851168127345026,
        "lon": -155.8473055185299,
        "alt_km": 35786.117720441885,
        "timestamp": "2025-12-21T07:34:34.187476+00:00",
        "meta_object_name": "METEOSAT-10 (MSG-3)",
        "meta_object_id": "2012-035B",
        "meta_epoch": "2025-12-20T21:47:32.825184",
        "meta_mean_motion": 1.00276718,
        "meta_eccentricity": 7.034e-05,
        "meta_inclination": 4.2467,
        "meta_ra_of_asc_node": 61.701,
        "meta_arg_of_pericenter": 269.3726,
        "meta_mean_anomaly": 85.8472,
        "meta_ephemeris_type": 0,
        "meta_classification_type": "U",
        "meta_norad_cat_id": 38552,
        "meta_element_set_no": 999,
        "meta_rev_at_epoch": 4906,
        "meta_bstar": 0,
        "meta_mean_motion_dot": 1.6e-07,
        "meta_mean_motion_ddot": 0,
        "tle_line1": "1 38552U 12035B   25354.90801881  .00000016  00000+0  00000+0 0  9993",
        "tle_line2": "2 38552   4.2467  61.7010 0000703 269.3726  85.8472  1.00276718 49063"
      },
      "geometry": {
        "type": "Point",
        "coordinates": [
          -155.8473055185299,
          2.5851168127345026
        ]
      }
    },
    {
      "type": "Feature",
      "properties": {
        "norad_id": 38771,
        "name": "METOP-B",
        "group": "weather",
        "lat": 26.262642056696563,
        "lon": 40.806510826250346,
        "alt_km": 819.9487042272676,
        "timestamp": "2025-12-21T07:34:34.187486+00:00",
        "meta_object_name": "METOP-B",
        "meta_object_id": "2012-049A",
        "meta_epoch": "2025-12-20T21:18:53.727840",
        "meta_mean_motion": 14.21411198,
        "meta_eccentricity": 0.00031795,
        "meta_inclination": 98.6786,
        "meta_ra_of_asc_node": 44.7084,
        "meta_arg_of_pericenter": 126.8826,
        "meta_mean_anomaly": 233.2643,
        "meta_ephemeris_type": 0,
        "meta_classification_type": "U",
        "meta_norad_cat_id": 38771,
        "meta_element_set_no": 999,
        "meta_rev_at_epoch": 68793,
        "meta_bstar": 6.4043908e-05,
        "meta_mean_motion_dot": 9.6e-07,
        "meta_mean_motion_ddot": 0,
        "tle_line1": "1 38771U 12049A   25354.88812185  .00000096  00000+0  64044-4 0  9998",
        "tle_line2": "2 38771  98.6786  44.7084 0003179 126.8826 233.2643 14.21411198687930"
      },
      "geometry": {
        "type": "Point",
        "coordinates": [
          40.806510826250346,
          26.262642056696563
        ]
      }
    },
    {
      "type": "Feature",
      "properties": {
        "norad_id": 39216,
        "name": "INSAT-3D",
        "group": "weather",
        "lat": -1.3758849453152247,
        "lon": -26.724712222800736,
        "alt_km": 35785.676662727376,
        "timestamp": "2025-12-21T07:34:34.187497+00:00",
        "meta_object_name": "INSAT-3D",
        "meta_object_id": "2013-038B",
        "meta_epoch": "2025-12-20T22:24:21.800160",
        "meta_mean_motion": 1.00276867,
        "meta_eccentricity": 0.00018071,
        "meta_inclination": 1.4648,
        "meta_ra_of_asc_node": 84.9064,
        "meta_arg_of_pericenter": 152.1935,
        "meta_mean_anomaly": 318.232,
        "meta_ephemeris_type": 0,
        "meta_classification_type": "U",
        "meta_norad_cat_id": 39216,
        "meta_element_set_no": 999,
        "meta_rev_at_epoch": 4529,
        "meta_bstar": 0,
        "meta_mean_motion_dot": -3.16e-06,
        "meta_mean_motion_ddot": 0,
        "tle_line1": "1 39216U 13038B   25354.93358565 -.00000316  00000+0  00000+0 0  9998",
        "tle_line2": "2 39216   1.4648  84.9064 0001807 152.1935 318.2320  1.00276867 45295"
      },
      "geometry": {
        "type": "Point",
        "coordinates": [
          -26.724712222800736,
          -1.3758849453152247
        ]
      }
    },
    {
      "type": "Feature",
      "properties": {
        "norad_id": 39260,
        "name": "FENGYUN 3C",
        "group": "weather",
        "lat": 78.81642541921369,
        "lon": -158.4563798372102,
        "alt_km": 829.5954287986242,
        "timestamp": "2025-12-21T07:34:34.187507+00:00",
        "meta_object_name": "FENGYUN 3C",
        "meta_object_id": "2013-052A",
        "meta_epoch": "2025-12-20T22:38:11.139936",
        "meta_mean_motion": 14.1569859,
        "meta_eccentricity": 0.00147375,
        "meta_inclination": 98.4771,
        "meta_ra_of_asc_node": 332.2223,
        "meta_arg_of_pericenter": 172.1548,
        "meta_mean_anomaly": 187.986,
        "meta_ephemeris_type": 0,
        "meta_classification_type": "U",
        "meta_norad_cat_id": 39260,
        "meta_element_set_no": 999,
        "meta_rev_at_epoch": 63334,
        "meta_bstar": 4.2190973e-05,
        "meta_mean_motion_dot": 4.2e-07,
        "meta_mean_motion_ddot": 0,
        "tle_line1": "1 39260U 13052A   25354.94318449  .00000042  00000+0  42191-4 0  9998",
        "tle_line2": "2 39260  98.4771 332.2223 0014737 172.1548 187.9860 14.15698590633341"
      },
      "geometry": {
        "type": "Point",
        "coordinates": [
          -158.4563798372102,
          78.81642541921369
        ]
      }
    }
  ]
}